FALCONSAT-6             
1 43815U 18099BK  26068.72544389  .00005029  00000+0  19477-3 0  9998
2 43815  97.3865 145.8165 0014370 297.0944 181.0714 15.26532865398556
STARLINK-36129          
1 66874U 25281AC  26068.15523885  .00035237  00000+0  12841-2 0  9995
2 66874  43.0031 346.5022 0001675 285.5594  74.5073 15.27575623 16098
